[{"OBJECT_NAME":"ONEWEB-0314","OBJECT_ID":"2021-075AB","EPOCH":"2025-11-10T16:33:23.893632","MEAN_MOTION":13.17650503,"ECCENTRICITY":0.00014997,"INCLINATION":87.9139,"RA_OF_ASC_NODE":49.2854,"ARG_OF_PERICENTER":88.9337,"MEAN_ANOMALY":271.1967,"EPHEMERIS_TYPE":0,"CLASSIFICATION_TYPE":"U","NORAD_CAT_ID":49100,"ELEMENT_SET_NO":999,"REV_AT_EPOCH":20479,"BSTAR":0.00012024705,"MEAN_MOTION_DOT":6.0e-7,"MEAN_MOTION_DDOT":0},{"OBJECT_NAME":"ONEWEB-0315","OBJECT_ID":"2021-075AC","EPOCH":"2025-11-10T15:17:55.218624","MEAN_MOTION":13.12442894,"ECCENTRICITY":0.00013653,"INCLINATION":87.8967,"RA_OF_ASC_NODE":34.0573,"ARG_OF_PERICENTER":104.3895,"MEAN_ANOMALY":255.7386,"EPHEMERIS_TYPE":0,"CLASSIFICATION_TYPE":"U","NORAD_CAT_ID":49101,"ELEMENT_SET_NO":999,"REV_AT_EPOCH":20650,"BSTAR":-0.0010407375,"MEAN_MOTION_DOT":-3.62e-6,"MEAN_MOTION_DDOT":0},{"OBJECT_NAME":"ONEWEB-0316","OBJECT_ID":"2021-075AD","EPOCH":"2025-11-10T11:35:13.380864","MEAN_MOTION":13.18688327,"ECCENTRICITY":0.00017273,"INCLINATION":87.9221,"RA_OF_ASC_NODE":18.9058,"ARG_OF_PERICENTER":100.0998,"MEAN_ANOMALY":260.0329,"EPHEMERIS_TYPE":0,"CLASSIFICATION_TYPE":"U","NORAD_CAT_ID":49102,"ELEMENT_SET_NO":999,"REV_AT_EPOCH":20838,"BSTAR":8.4623262e-5,"MEAN_MOTION_DOT":4.6e-7,"MEAN_MOTION_DDOT":0},{"OBJECT_NAME":"ONEWEB-0317","OBJECT_ID":"2021-075AE","EPOCH":"2025-11-10T11:29:00.073248","MEAN_MOTION":13.12440701,"ECCENTRICITY":0.00025254,"INCLINATION":87.8972,"RA_OF_ASC_NODE":34.1056,"ARG_OF_PERICENTER":94.7489,"MEAN_ANOMALY":265.3928,"EPHEMERIS_TYPE":0,"CLASSIFICATION_TYPE":"U","NORAD_CAT_ID":49103,"ELEMENT_SET_NO":999,"REV_AT_EPOCH":20650,"BSTAR":-0.00081372063,"MEAN_MOTION_DOT":-2.8e-6,"MEAN_MOTION_DDOT":0},{"OBJECT_NAME":"ONEWEB-0318","OBJECT_ID":"2021-075AF","EPOCH":"2025-11-10T04:13:26.190912","MEAN_MOTION":13.1867914,"ECCENTRICITY":0.00015625,"INCLINATION":87.922,"RA_OF_ASC_NODE":18.9535,"ARG_OF_PERICENTER":101.3744,"MEAN_ANOMALY":258.7564,"EPHEMERIS_TYPE":0,"CLASSIFICATION_TYPE":"U","NORAD_CAT_ID":49104,"ELEMENT_SET_NO":999,"REV_AT_EPOCH":20830,"BSTAR":-0.0015141603,"MEAN_MOTION_DOT":-5.84e-6,"MEAN_MOTION_DDOT":0},{"OBJECT_NAME":"ONEWEB-0319","OBJECT_ID":"2021-075AG","EPOCH":"2025-11-10T13:16:33.449088","MEAN_MOTION":13.17651383,"ECCENTRICITY":0.00012897,"INCLINATION":87.9126,"RA_OF_ASC_NODE":49.35,"ARG_OF_PERICENTER":96.8403,"MEAN_ANOMALY":263.2875,"EPHEMERIS_TYPE":0,"CLASSIFICATION_TYPE":"U","NORAD_CAT_ID":49105,"ELEMENT_SET_NO":999,"REV_AT_EPOCH":20481,"BSTAR":0.00023052993,"MEAN_MOTION_DOT":1.02e-6,"MEAN_MOTION_DDOT":0},{"OBJECT_NAME":"ONEWEB-0323","OBJECT_ID":"2021-075AH","EPOCH":"2025-11-10T14:54:33.773472","MEAN_MOTION":13.12441948,"ECCENTRICITY":0.00010985,"INCLINATION":87.8974,"RA_OF_ASC_NODE":34.0641,"ARG_OF_PERICENTER":90.014,"MEAN_ANOMALY":270.1114,"EPHEMERIS_TYPE":0,"CLASSIFICATION_TYPE":"U","NORAD_CAT_ID":49106,"ELEMENT_SET_NO":999,"REV_AT_EPOCH":20588,"BSTAR":-0.0001645327,"MEAN_MOTION_DOT":-4.6e-7,"MEAN_MOTION_DDOT":0},{"OBJECT_NAME":"ONEWEB-0329","OBJECT_ID":"2021-075AJ","EPOCH":"2025-11-10T17:07:24.169152","MEAN_MOTION":13.17647998,"ECCENTRICITY":0.00016001,"INCLINATION":87.9127,"RA_OF_ASC_NODE":49.3209,"ARG_OF_PERICENTER":96.4159,"MEAN_ANOMALY":263.7155,"EPHEMERIS_TYPE":0,"CLASSIFICATION_TYPE":"U","NORAD_CAT_ID":49107,"ELEMENT_SET_NO":999,"REV_AT_EPOCH":20481,"BSTAR":0.00018185528,"MEAN_MOTION_DOT":8.3e-7,"MEAN_MOTION_DDOT":0},{"OBJECT_NAME":"ONEWEB-0330","OBJECT_ID":"2021-075AK","EPOCH":"2025-11-10T17:08:37.831200","MEAN_MOTION":13.1764942,"ECCENTRICITY":0.00017493,"INCLINATION":87.9126,"RA_OF_ASC_NODE":49.3254,"ARG_OF_PERICENTER":93.1566,"MEAN_ANOMALY":266.9765,"EPHEMERIS_TYPE":0,"CLASSIFICATION_TYPE":"U","NORAD_CAT_ID":49108,"ELEMENT_SET_NO":999,"REV_AT_EPOCH":20485,"BSTAR":0.0001310405,"MEAN_MOTION_DOT":6.4e-7,"MEAN_MOTION_DDOT":0},{"OBJECT_NAME":"ONEWEB-0292","OBJECT_ID":"2021-083A","EPOCH":"2025-11-10T12:51:38.550240","MEAN_MOTION":13.13469064,"ECCENTRICITY":0.00016204,"INCLINATION":87.901,"RA_OF_ASC_NODE":3.7222,"ARG_OF_PERICENTER":98.0021,"MEAN_ANOMALY":262.1292,"EPHEMERIS_TYPE":0,"CLASSIFICATION_TYPE":"U","NORAD_CAT_ID":49186,"ELEMENT_SET_NO":999,"REV_AT_EPOCH":20222,"BSTAR":-0.00013279656,"MEAN_MOTION_DOT":-3.6e-7,"MEAN_MOTION_DDOT":0},{"OBJECT_NAME":"ONEWEB-0303","OBJECT_ID":"2021-083B","EPOCH":"2025-11-10T11:25:43.328352","MEAN_MOTION":13.18687653,"ECCENTRICITY":0.00016266,"INCLINATION":87.9226,"RA_OF_ASC_NODE":18.8953,"ARG_OF_PERICENTER":99.6795,"MEAN_ANOMALY":260.4521,"EPHEMERIS_TYPE":0,"CLASSIFICATION_TYPE":"U","NORAD_CAT_ID":49187,"ELEMENT_SET_NO":999,"REV_AT_EPOCH":20115,"BSTAR":3.0615526e-5,"MEAN_MOTION_DOT":2.5e-7,"MEAN_MOTION_DDOT":0},{"OBJECT_NAME":"ONEWEB-0306","OBJECT_ID":"2021-083C","EPOCH":"2025-11-10T22:07:02.669952","MEAN_MOTION":13.18687425,"ECCENTRICITY":0.00020238,"INCLINATION":87.9219,"RA_OF_ASC_NODE":18.7916,"ARG_OF_PERICENTER":98.9783,"MEAN_ANOMALY":261.1579,"EPHEMERIS_TYPE":0,"CLASSIFICATION_TYPE":"U","NORAD_CAT_ID":49188,"ELEMENT_SET_NO":999,"REV_AT_EPOCH":20125,"BSTAR":2.1154746e-5,"MEAN_MOTION_DOT":2.1e-7,"MEAN_MOTION_DDOT":0},{"OBJECT_NAME":"ONEWEB-0307","OBJECT_ID":"2021-083D","EPOCH":"2025-11-10T20:01:53.133600","MEAN_MOTION":13.13470708,"ECCENTRICITY":0.00018767,"INCLINATION":87.9008,"RA_OF_ASC_NODE":3.6555,"ARG_OF_PERICENTER":99.1547,"MEAN_ANOMALY":260.9794,"EPHEMERIS_TYPE":0,"CLASSIFICATION_TYPE":"U","NORAD_CAT_ID":49189,"ELEMENT_SET_NO":999,"REV_AT_EPOCH":20226,"BSTAR":0.00043544378,"MEAN_MOTION_DOT":1.72e-6,"MEAN_MOTION_DDOT":0},{"OBJECT_NAME":"ONEWEB-0320","OBJECT_ID":"2021-083E","EPOCH":"2025-11-10T05:54:22.466304","MEAN_MOTION":13.18686884,"ECCENTRICITY":0.00018086,"INCLINATION":87.9225,"RA_OF_ASC_NODE":18.9555,"ARG_OF_PERICENTER":99.9409,"MEAN_ANOMALY":260.1928,"EPHEMERIS_TYPE":0,"CLASSIFICATION_TYPE":"U","NORAD_CAT_ID":49190,"ELEMENT_SET_NO":999,"REV_AT_EPOCH":20112,"BSTAR":-0.00012318539,"MEAN_MOTION_DOT":-3.6e-7,"MEAN_MOTION_DDOT":0},{"OBJECT_NAME":"ONEWEB-0321","OBJECT_ID":"2021-083F","EPOCH":"2025-11-10T22:41:41.571456","MEAN_MOTION":13.20773074,"ECCENTRICITY":0.00021476,"INCLINATION":87.9183,"RA_OF_ASC_NODE":317.9587,"ARG_OF_PERICENTER":91.0417,"MEAN_ANOMALY":269.0963,"EPHEMERIS_TYPE":0,"CLASSIFICATION_TYPE":"U","NORAD_CAT_ID":49191,"ELEMENT_SET_NO":999,"REV_AT_EPOCH":20802,"BSTAR":0.00020564351,"MEAN_MOTION_DOT":9.7e-7,"MEAN_MOTION_DDOT":0},{"OBJECT_NAME":"ONEWEB-0322","OBJECT_ID":"2021-083G","EPOCH":"2025-11-10T19:55:47.624448","MEAN_MOTION":13.13467873,"ECCENTRICITY":0.00022971,"INCLINATION":87.9014,"RA_OF_ASC_NODE":3.6571,"ARG_OF_PERICENTER":103.9473,"MEAN_ANOMALY":256.1912,"EPHEMERIS_TYPE":0,"CLASSIFICATION_TYPE":"U","NORAD_CAT_ID":49192,"ELEMENT_SET_NO":999,"REV_AT_EPOCH":20225,"BSTAR":0.00069568793,"MEAN_MOTION_DOT":2.67e-6,"MEAN_MOTION_DDOT":0},{"OBJECT_NAME":"ONEWEB-0324","OBJECT_ID":"2021-083H","EPOCH":"2025-11-10T11:01:58.486080","MEAN_MOTION":13.18687478,"ECCENTRICITY":0.0001814,"INCLINATION":87.9216,"RA_OF_ASC_NODE":18.8903,"ARG_OF_PERICENTER":94.4052,"MEAN_ANOMALY":265.7287,"EPHEMERIS_TYPE":0,"CLASSIFICATION_TYPE":"U","NORAD_CAT_ID":49193,"ELEMENT_SET_NO":999,"REV_AT_EPOCH":20117,"BSTAR":3.3058213e-5,"MEAN_MOTION_DOT":2.6e-7,"MEAN_MOTION_DDOT":0}]
