ONEWEB-0314             
1 49100U 21075AB  25314.68985988  .00000060  00000+0  12025-3 0  9993
2 49100  87.9139  49.2854 0001499  88.9337 271.1967 13.17650503204792
ONEWEB-0315             
1 49101U 21075AC  25314.63744466 -.00000362  00000+0 -10407-2 0  9991
2 49101  87.8967  34.0573 0001365 104.3895 255.7386 13.12442894206506
ONEWEB-0316             
1 49102U 21075AD  25314.48279376  .00000046  00000+0  84623-4 0  9998
2 49102  87.9221  18.9058 0001727 100.0998 260.0329 13.18688327208382
ONEWEB-0317             
1 49103U 21075AE  25314.47847307 -.00000280  00000+0 -81372-3 0  9992
2 49103  87.8972  34.1056 0002525  94.7489 265.3928 13.12440701206505
ONEWEB-0318             
1 49104U 21075AF  25314.17599758 -.00000584  00000+0 -15142-2 0  9992
2 49104  87.9220  18.9535 0001562 101.3744 258.7564 13.18679140208303
ONEWEB-0319             
1 49105U 21075AG  25314.55316492  .00000102  00000+0  23053-3 0  9992
2 49105  87.9126  49.3500 0001289  96.8403 263.2875 13.17651383204811
ONEWEB-0323             
1 49106U 21075AH  25314.62122423 -.00000046  00000+0 -16453-3 0  9995
2 49106  87.8974  34.0641 0001098  90.0140 270.1114 13.12441948205881
ONEWEB-0329             
1 49107U 21075AJ  25314.71347418  .00000083  00000+0  18186-3 0  9993
2 49107  87.9127  49.3209 0001600  96.4159 263.7155 13.17647998204814
ONEWEB-0330             
1 49108U 21075AK  25314.71432675  .00000064  00000+0  13104-3 0  9998
2 49108  87.9126  49.3254 0001749  93.1566 266.9765 13.17649420204852
ONEWEB-0292             
1 49186U 21083A   25314.53586285 -.00000036  00000+0 -13280-3 0  9996
2 49186  87.9010   3.7222 0001620  98.0021 262.1292 13.13469064202229
ONEWEB-0303             
1 49187U 21083B   25314.47619593  .00000025  00000+0  30616-4 0  9998
2 49187  87.9226  18.8953 0001626  99.6795 260.4521 13.18687653201156
ONEWEB-0306             
1 49188U 21083C   25314.92155868  .00000021  00000+0  21155-4 0  9993
2 49188  87.9219  18.7916 0002023  98.9783 261.1579 13.18687425201257
ONEWEB-0307             
1 49189U 21083D   25314.83464275  .00000172  00000+0  43544-3 0  9991
2 49189  87.9008   3.6555 0001876  99.1547 260.9794 13.13470708202269
ONEWEB-0320             
1 49190U 21083E   25314.24609336 -.00000036  00000+0 -12319-3 0  9994
2 49190  87.9225  18.9555 0001808  99.9409 260.1928 13.18686884201125
ONEWEB-0321             
1 49191U 21083F   25314.94562004  .00000097  00000+0  20564-3 0  9998
2 49191  87.9183 317.9587 0002147  91.0417 269.0963 13.20773074208029
ONEWEB-0322             
1 49192U 21083G   25314.83041232  .00000267  00000+0  69569-3 0  9999
2 49192  87.9014   3.6571 0002297 103.9473 256.1912 13.13467873202255
ONEWEB-0324             
1 49193U 21083H   25314.45970470  .00000026  00000+0  33058-4 0  9991
2 49193  87.9216  18.8903 0001814  94.4052 265.7287 13.18687478201179
